NORAD_CAT_ID,OBJECT_NAME,OBJECT_TYPE,EPOCH,MEAN_MOTION,ECCENTRICITY,INCLINATION,RA_OF_ASC_NODE,ARG_OF_PERICENTER,MEAN_ANOMALY,BSTAR,MEAN_MOTION_DOT,MEAN_MOTION_DDOT,TLE_LINE0,TLE_LINE1,TLE_LINE2,SEMIMAJOR_AXIS,PERIOD,APOGEE,PERIGEE,DECAYED
52367.0,STARLINK-3817,PAYLOAD,2023-07-31 02:48:40,15.08844574,0.000126,53.2172,145.3871,98.3038,261.8097,-7.2835e-06,-4.04e-06,0.0,0 STARLINK-3817,1 52367U 22045AN  23212.11713493 -.00000404  00000-0 -72835-5 0  9995,2 52367  53.2172 145.3871 0001260  98.3038 261.8097 15.08844574 72114,6917.866,95.437,540.603,538.86,0.0
52367.0,STARLINK-3817,PAYLOAD,2023-08-01 02:39:27,15.08838697,0.0001324,53.2174,140.9258,103.0419,257.0721,6.8172e-06,-1.79e-06,0.0,0 STARLINK-3817,1 52367U 22045AN  23213.11074041 -.00000179  00000-0  68172-5 0  9992,2 52367  53.2174 140.9258 0001324 103.0419 257.0721 15.08838697 72260,6917.884,95.438,540.665,538.833,0.0
52367.0,STARLINK-3817,PAYLOAD,2023-08-02 12:02:33,15.0884598,0.0001303,53.2175,134.6779,86.5681,273.546,-3.1499e-05,-7.89e-06,0.0,0 STARLINK-3817,1 52367U 22045AN  23214.50178067 -.00000789  00000-0 -31499-4 0  9998,2 52367  53.2175 134.6779 0001303  86.5681 273.5460 15.08845980 72471,6917.862,95.437,540.629,538.826,0.0
52367.0,STARLINK-3817,PAYLOAD,2023-08-04 00:36:26,15.08839473,0.0001418,53.2166,127.8412,78.2197,281.8954,4.5074e-05,4.29e-06,0.0,0 STARLINK-3817,1 52367U 22045AN  23216.02530695  .00000429  00000-0  45074-4 0  9999,2 52367  53.2166 127.8412 0001418  78.2197 281.8954 15.08839473 72702,6917.882,95.438,540.728,538.766,0.0
52367.0,STARLINK-3817,PAYLOAD,2023-08-05 03:37:59,15.08853477,0.0001406,53.2172,122.7807,84.3348,275.7805,-8.2498e-05,-1.601e-05,0.0,0 STARLINK-3817,1 52367U 22045AN  23217.15138130 -.00001601  00000-0 -82498-4 0  9998,2 52367  53.2172 122.7807 0001406  84.3348 275.7805 15.08853477 72879,6917.839,95.437,540.677,538.732,0.0
52367.0,STARLINK-3817,PAYLOAD,2023-08-06 09:50:19,15.08839315,0.000133,53.2161,117.1331,79.6176,280.4966,3.4992e-05,2.69e-06,0.0,0 STARLINK-3817,1 52367U 22045AN  23218.40994326  .00000269  00000-0  34992-4 0  9997,2 52367  53.2161 117.1331 0001330  79.6176 280.4966 15.08839315 73067,6917.882,95.438,540.668,538.827,0.0
52367.0,STARLINK-3817,PAYLOAD,2023-08-07 00:08:48,15.08822056,0.0001252,53.2161,114.4623,110.6877,249.425,-0.00024415,-4.169e-05,0.0,0 STARLINK-3817,1 52367U 22045AN  23219.00611600 -.00004169  00000-0 -24415-3 0  9998,2 52367  53.2161 114.4623 0001252 110.6877 249.4250 15.08822056 73153,6917.935,95.439,540.666,538.934,0.0
52367.0,STARLINK-3817,PAYLOAD,2023-08-07 09:41:07,15.0883255,0.0001166,53.2165,112.6749,99.1183,260.9941,-7.2645e-05,-1.444e-05,0.0,0 STARLINK-3817,1 52367U 22045AN  23219.40355343 -.00001444  00000-0 -72645-4 0  9993,2 52367  53.2165 112.6749 0001166  99.1183 260.9941 15.08832550 73213,6917.903,95.438,540.575,538.962,0.0
52367.0,STARLINK-3817,PAYLOAD,2023-08-07 23:59:34,15.08848801,0.0001148,53.216,109.9996,109.5924,250.5192,0.00037279,5.651e-05,0.0,0 STARLINK-3817,1 52367U 22045AN  23219.99970995  .00005651  00000-0  37279-3 0  9998,2 52367  53.2160 109.9996 0001148 109.5924 250.5192 15.08848801 73309,6917.853,95.437,540.513,538.924,0.0
52367.0,STARLINK-3817,PAYLOAD,2023-08-09 01:25:44,15.08859701,0.0001071,53.2162,105.2404,106.0186,254.0924,0.00049214,7.557e-05,0.0,0 STARLINK-3817,1 52367U 22045AN  23221.05954644  .00007557  00000-0  49214-3 0  9990,2 52367  53.2162 105.2404 0001071 106.0186 254.0924 15.08859701 73461,6917.82,95.436,540.426,538.944,0.0
52367.0,STARLINK-3817,PAYLOAD,2023-08-09 09:22:40,15.08850944,0.0001282,53.2166,103.7516,87.9269,272.187,0.00015766,2.223e-05,0.0,0 STARLINK-3817,1 52367U 22045AN  23221.39074699  .00002223  00000-0  15766-3 0  9990,2 52367  53.2166 103.7516 0001282  87.9269 272.1870 15.08850944 73512,6917.847,95.437,540.599,538.825,0.0
52367.0,STARLINK-3817,PAYLOAD,2023-08-09 22:05:46,15.08839045,0.0001961,53.2187,101.3753,83.774,276.3475,-1.7219e-05,-5.62e-06,0.0,0 STARLINK-3817,1 52367U 22045AN  23221.92067195 -.00000562  00000-0 -17219-4 0  9994,2 52367  53.2187 101.3753 0001961  83.7740 276.3475 15.08839045 73598,6917.883,95.438,541.105,538.392,0.0
52367.0,STARLINK-3817,PAYLOAD,2023-08-11 01:07:18,15.08852497,9.62e-05,53.2157,96.3204,97.9886,262.1216,0.000119,1.607e-05,0.0,0 STARLINK-3817,1 52367U 22045AN  23223.04674376  .00001607  00000-0  11900-3 0  9993,2 52367  53.2157  96.3204 0000962  97.9886 262.1216 15.08852497 73768,6917.842,95.437,540.373,539.042,0.0
52367.0,STARLINK-3817,PAYLOAD,2023-08-11 09:04:14,15.08839861,0.0001247,53.2179,94.8336,78.0703,282.0429,3.2337e-05,2.27e-06,0.0,0 STARLINK-3817,1 52367U 22045AN  23223.37795128  .00000227  00000-0  32337-4 0  9993,2 52367  53.2179  94.8336 0001247  78.0703 282.0429 15.08839861 73819,6917.881,95.438,540.608,538.883,0.0
52367.0,STARLINK-3817,PAYLOAD,2023-08-12 16:51:57,15.08841714,0.0001225,53.2162,88.8872,76.7018,283.411,0.00012044,1.63e-05,0.0,0 STARLINK-3817,1 52367U 22045AN  23224.70275198  .00001630  00000-0  12044-3 0  9992,2 52367  53.2162  88.8872 0001225  76.7018 283.4110 15.08841714 74014,6917.875,95.437,540.588,538.893,0.0
52367.0,STARLINK-3817,PAYLOAD,2023-08-13 18:18:08,15.08836762,0.0001156,53.2164,84.1299,80.7628,279.3495,5.0026e-05,5.08e-06,0.0,0 STARLINK-3817,1 52367U 22045AN  23225.76259446  .00000508  00000-0  50026-4 0  9993,2 52367  53.2164  84.1299 0001156  80.7628 279.3495 15.08836762 74177,6917.89,95.438,540.555,538.956,0.0
52367.0,STARLINK-3817,PAYLOAD,2023-08-15 00:30:27,15.08833032,0.0001102,53.2177,78.4767,98.1528,261.9589,0.00035333,5.339e-05,0.0,0 STARLINK-3817,1 52367U 22045AN  23227.02115302  .00005339  00000-0  35333-3 0  9996,2 52367  53.2177  78.4767 0001102  98.1528 261.9589 15.08833032 74369,6917.902,95.438,540.529,539.004,0.0
52367.0,STARLINK-3817,PAYLOAD,2023-08-15 16:24:19,15.08828128,0.0001325,53.2184,75.5043,92.7108,267.4036,0.00018808,2.706e-05,0.0,0 STARLINK-3817,1 52367U 22045AN  23227.68355849  .00002706  00000-0  18808-3 0  9993,2 52367  53.2184  75.5043 0001325  92.7108 267.4036 15.08828128 74462,6917.917,95.438,540.698,538.865,0.0
52367.0,STARLINK-3817,PAYLOAD,2023-08-16 00:21:14,15.08839971,0.0001349,53.2179,74.0182,87.1871,272.9276,9.9366e-05,1.294e-05,0.0,0 STARLINK-3817,1 52367U 22045AN  23228.01475485  .00001294  00000-0  99366-4 0  9990,2 52367  53.2179  74.0182 0001349  87.1871 272.9276 15.08839971 74516,6917.88,95.438,540.679,538.812,0.0
52367.0,STARLINK-3817,PAYLOAD,2023-08-17 19:16:37,15.08850481,0.0002133,53.2151,65.986,111.1274,248.9946,0.00052867,8.138e-05,0.0,0 STARLINK-3817,1 52367U 22045AN  23229.80321383  .00008138  00000-0  52867-3 0  9993,2 52367  53.2151  65.9860 0002133 111.1274 248.9946 15.08850481 74780,6917.848,95.437,541.189,538.238,0.0
52367.0,STARLINK-3817,PAYLOAD,2023-08-18 19:07:26,15.08834547,4.36e-05,53.2179,61.527,67.5184,292.5854,-1.4488e-05,-5.18e-06,0.0,0 STARLINK-3817,1 52367U 22045AN  23230.79683755 -.00000518  00000-0 -14488-4 0  9991,2 52367  53.2179  61.5270 0000436  67.5184 292.5854 15.08834547 74930,6917.897,95.438,540.064,539.46,0.0
52367.0,STARLINK-3817,PAYLOAD,2023-08-18 22:18:10,15.08991656,0.0001231,53.2155,60.9349,35.6762,324.4312,-0.0022131,-0.00035482,0.0,0 STARLINK-3817,1 52367U 22045AN  23230.92929105 -.00035482  00000-0 -22131-2 0  9998,2 52367  53.2155  60.9349 0001231  35.6762 324.4312 15.08991656 74957,6917.417,95.428,540.133,538.43,0.0
52367.0,STARLINK-3817,PAYLOAD,2023-08-19 06:15:05,15.08949835,0.0001491,53.2158,59.448,53.1283,306.9846,-0.0017401,-0.00027958,0.0,0 STARLINK-3817,1 52367U 22045AN  23231.26047804 -.00027958  00000-0 -17401-2 0  9996,2 52367  53.2158  59.4480 0001491  53.1283 306.9846 15.08949835 75006,6917.545,95.431,540.441,538.378,0.0
52367.0,STARLINK-3817,PAYLOAD,2023-08-19 12:36:35,15.08956841,0.0001312,53.2159,58.2583,40.9625,319.1465,-0.0019904,-0.00031926,0.0,0 STARLINK-3817,1 52367U 22045AN  23231.52541586 -.00031926  00000-0 -19904-2 0  9991,2 52367  53.2159  58.2583 0001312  40.9625 319.1465 15.08956841 75046,6917.523,95.43,540.296,538.481,0.0
52367.0,STARLINK-3817,PAYLOAD,2023-08-20 02:55:09,15.08825308,0.0001339,53.2168,55.5805,65.7604,294.3528,0.0001112,1.482e-05,0.0,0 STARLINK-3817,1 52367U 22045AN  23232.12164291  .00001482  00000-0  11120-3 0  9997,2 52367  53.2168  55.5805 0001339  65.7604 294.3528 15.08825308 75131,6917.925,95.438,540.717,538.864,0.0
52367.0,STARLINK-3817,PAYLOAD,2023-08-20 18:49:01,15.0883935,0.0001449,53.2152,52.6085,77.3544,282.761,0.00024055,3.542e-05,0.0,0 STARLINK-3817,1 52367U 22045AN  23232.78404006  .00003542  00000-0  24055-3 0  9990,2 52367  53.2152  52.6085 0001449  77.3544 282.7610 15.08839350 75232,6917.882,95.438,540.75,538.745,0.0
52367.0,STARLINK-3817,PAYLOAD,2023-08-21 12:18:15,15.08834239,0.0001191,53.2155,49.3349,80.7317,279.381,9.9716e-05,1.299e-05,0.0,0 STARLINK-3817,1 52367U 22045AN  23233.51268404  .00001299  00000-0  99716-4 0  9996,2 52367  53.2155  49.3349 0001191  80.7317 279.3810 15.08834239 75348,6917.898,95.438,540.587,538.939,0.0
52367.0,STARLINK-3817,PAYLOAD,2023-08-22 21:41:21,15.0884507,0.0001407,53.2178,43.0912,97.5251,262.5901,0.00011397,1.527e-05,0.0,0 STARLINK-3817,1 52367U 22045AN  23234.90371981  .00001527  00000-0  11397-3 0  9997,2 52367  53.2178  43.0912 0001407  97.5251 262.5901 15.08845070 75556,6917.865,95.437,540.703,538.757,0.0
52367.0,STARLINK-3817,PAYLOAD,2023-08-24 19:47:32,15.08841396,0.0001543,53.2168,34.4665,92.9792,267.1377,9.4203e-05,1.212e-05,0.0,0 STARLINK-3817,1 52367U 22045AN  23236.82468357  .00001212  00000-0  94203-4 0  9993,2 52367  53.2168  34.4665 0001543  92.9792 267.1377 15.08841396 75841,6917.876,95.437,540.809,538.674,0.0
52367.0,STARLINK-3817,PAYLOAD,2023-08-25 10:06:01,15.08838048,0.0001376,53.2162,31.79,87.7521,272.3629,7.2637e-05,8.68e-06,0.0,0 STARLINK-3817,1 52367U 22045AN  23237.42084621  .00000868  00000-0  72637-4 0  9991,2 52367  53.2162  31.7900 0001376  87.7521 272.3629 15.08838048 75931,6917.886,95.438,540.703,538.799,0.0
